IRIDIUM 8 [+]           
1 24792U 97020A   16008.53081149  .00000024  00000-0  14787-5 0  9996
2 24792  86.3974 178.4168 0001939  86.4755 273.6662 14.34216973977853
IRIDIUM 7 [+]           
1 24793U 97020B   16008.52446538 -.00000023  00000-0 -15275-4 0  9996
2 24793  86.3978 178.6733 0001934  88.3514 271.7903 14.34216491977859
IRIDIUM 6 [+]           
1 24794U 97020C   16008.51806989  .00000120  00000-0  35851-4 0  9994
2 24794  86.3973 178.6187 0001963  93.1330 267.0090 14.34214831977851
IRIDIUM 5 [+]           
1 24795U 97020D   16008.51179120 -.00000000  00000-0 -71059-5 0  9995
2 24795  86.3957 178.6679 0001903  92.5474 267.5940 14.34216423977933
IRIDIUM 4 [-]           
1 24796U 97020E   16008.55000818  .00000175  00000-0  54656-4 0  9991
2 24796  86.3968 177.9047 0002081  88.1936 313.3568 14.35030765977928
IRIDIUM 914 [-]         
1 24836U 97030A   16008.53636963  .00000202  00000-0  59431-4 0  9998
2 24836  86.3938 196.0570 0003313  65.7840 346.5060 14.38632401973375
IRIDIUM 12 [+]          
1 24837U 97030B   16008.53382289  .00000012  00000-0 -26867-5 0  9996
2 24837  86.3957 209.7947 0001940  85.2744 305.4118 14.34221602971606
IRIDIUM 10 [+]          
1 24839U 97030D   16008.52578991  .00000006  00000-0 -47866-5 0  9999
2 24839  86.3957 209.7811 0001942  83.9360 330.7250 14.34218356971610
IRIDIUM 13 [+]          
1 24840U 97030E   16008.53991001  .00000010  00000-0 -33363-5 0  9995
2 24840  86.3958 209.9040 0002079  87.5308 301.8395 14.34219214971605
IRIDIUM 16 [-]          
1 24841U 97030F   16008.48115716  .00000201  00000-0  61812-4 0  9991
2 24841  86.4034 210.1280 0002195 151.8383 208.2933 14.36597587972107
IRIDIUM 911 [-]         
1 24842U 97030G   16008.54877200  .00000223  00000-0  58180-4 0  9990
2 24842  86.4460 211.1900 0015931  42.8796 346.5587 14.44795895977040
IRIDIUM 15 [+]          
1 24869U 97034A   16008.59867446  .00000192  00000-0  61609-4 0  9994
2 24869  86.3959 241.4810 0002003  87.0529 293.1313 14.34218525968580
IRIDIUM 17 [-]          
1 24870U 97034B   16008.59461975  .00000212  00000-0  66596-4 0  9996
2 24870  86.3964 240.3352 0002970  99.9949 294.3077 14.35622052968752
IRIDIUM 920 [-]         
1 24871U 97034C   16008.55641207  .00000175  00000-0  49990-4 0  9998
2 24871  86.3972 227.8061 0009698 269.8957 119.8308 14.39355249970745
IRIDIUM 18 [+]          
1 24872U 97034D   16008.55673254  .00000184  00000-0  58757-4 0  9997
2 24872  86.3961 241.7254 0001861  87.9147 272.2262 14.34219707968571
IRIDIUM 921 [-]         
1 24873U 97034E   16008.39964701  .00002584  00000-0  15774-3 0  9997
2 24873  86.3970 314.1980 0009810 137.9867 343.1014 15.09802303  8728
IRIDIUM 26 [-]          
1 24903U 97043A   16008.40665795  .00000120  00000-0  34995-4 0  9995
2 24903  86.3990 114.9518 0001951  97.7035 304.9700 14.35148112962562
IRIDIUM 25 [+]          
1 24904U 97043B   16008.36546269  .00000257  00000-0  84658-4 0  9997
2 24904  86.3985 115.2861 0001971 101.4615 258.6802 14.34218549962458
IRIDIUM 46 [+]          
1 24905U 97043C   16008.37814746  .00000239  00000-0  78395-4 0  9998
2 24905  86.3993 115.7862 0001980  96.5668 263.5754 14.34218400962464
IRIDIUM 23 [S]          
1 24906U 97043D   16008.59993903  .00000252  00000-0  82911-4 0  9990
2 24906  86.3998 115.1564 0001887  96.9603   0.3911 14.34219700962503
IRIDIUM 22 [+]          
1 24907U 97043E   16008.34642662  .00000251  00000-0  82423-4 0  9994
2 24907  86.3995 115.9016 0002037  97.4125 262.7302 14.34218508962451
DUMMY MASS 1 [-]        
1 24925U 97048A   16008.21134096  .00000160  00000-0  15385-4 0  9994
2 24925  86.3372 285.8612 0009404  98.8207 261.4082 14.85035202993527
DUMMY MASS 2 [-]        
1 24926U 97048B   16007.83770519  .00000159  00000-0  15454-4 0  9993
2 24926  86.3371 287.0627 0010136 105.5097 291.0553 14.84804074993335
IRIDIUM 29 [-]          
1 24944U 97051A   16008.47434125  .00000183  00000-0  57945-4 0  9996
2 24944  86.3988 146.7916 0002221  87.5416 272.6034 14.34534981959053
IRIDIUM 32 [+]          
1 24945U 97051B   16008.44496975  .00000175  00000-0  55327-4 0  9998
2 24945  86.3986 146.9019 0001966  92.6422 267.4999 14.34215249959063
IRIDIUM 33 [-]          
1 24946U 97051C   16008.43940381  .00000159  00000-0  50494-4 0  9995
2 24946  86.3902 146.7968 0009019 144.4797 275.0440 14.33453817958723
IRIDIUM 28 [-]          
1 24948U 97051E   16008.48649325  .00000148  00000-0  44560-4 0  9991
2 24948  86.3992 146.3165 0001924 103.3420 324.3796 14.35435233959168
IRIDIUM 30 [+]          
1 24949U 97051F   16008.43864633  .00000175  00000-0  55434-4 0  9990
2 24949  86.3988 146.9922 0001906  92.7826 267.3588 14.34214475959046
IRIDIUM 31 [+]          
1 24950U 97051G   16008.50205638  .00000169  00000-0  53342-4 0  9993
2 24950  86.3988 146.9664 0002135  93.4676 266.6764 14.34215660959064
IRIDIUM 19 [+]          
1 24965U 97056A   16008.48641287  .00000016  00000-0 -12882-5 0  9992
2 24965  86.3974 178.4426 0001938  88.1502 271.9915 14.34219449957200
IRIDIUM 35 [+]          
1 24966U 97056B   16008.49909639  .00000006  00000-0 -48761-5 0  9996
2 24966  86.3974 178.4351 0001914  88.3355 271.8060 14.34216777957188
IRIDIUM 36 [-]          
1 24967U 97056C   16008.50812091  .00000161  00000-0  49191-4 0  9992
2 24967  86.3982 177.8980 0002232  89.9767 328.8429 14.35482049957457
IRIDIUM 37 [+]          
1 24968U 97056D   16008.47372421  .00000017  00000-0 -89350-6 0  9991
2 24968  86.3973 178.6167 0002042  91.6260 268.5170 14.34217831957188
IRIDIUM 34 [+]          
1 24969U 97056E   16008.49275341  .00000018  00000-0 -70806-6 0  9994
2 24969  86.3973 178.5461 0002056  92.6774 267.4657 14.34217540957186
IRIDIUM 43 [+]          
1 25039U 97069A   16008.55038860  .00000240  00000-0  78500-4 0  9990
2 25039  86.3963 241.6481 0002094  87.6507 272.4928 14.34220189950978
IRIDIUM 41 [+]          
1 25040U 97069B   16008.61941366  .00000195  00000-0  62656-4 0  9997
2 25040  86.3960 241.5877 0001815  88.6954 300.3065 14.34218917950982
IRIDIUM 40 [+]          
1 25041U 97069C   16008.56941206  .00000219  00000-0  70990-4 0  9992
2 25041  86.3957 241.8341 0003006  85.9523 274.2017 14.34220920950998
IRIDIUM 39 [+]          
1 25042U 97069D   16008.57576850  .00000243  00000-0  79656-4 0  9998
2 25042  86.3970 241.8776 0001717  86.5932 273.5460 14.34217924950976
IRIDIUM 38 [-]          
1 25043U 97069E   16008.60611325  .00000173  00000-0  52814-4 0  9999
2 25043  86.3962 239.4000 0001869 121.0653 268.6767 14.35901429951319
IRIDIUM 42 [-]          
1 25077U 97077A   16008.58653726  .00000039  00000-0  67500-5 0  9993
2 25077  86.3966 241.6299 0002007  93.7596 266.3829 14.34440572946843
IRIDIUM 44 [-]          
1 25078U 97077B   16008.59670992  .00000190  00000-0  56191-4 0  9990
2 25078  86.3961 232.4938 0002353 133.5005 255.9211 14.37975620948109
IRIDIUM 45 [+]          
1 25104U 97082A   16008.42597156  .00000189  00000-0  60594-4 0  9998
2 25104  86.3985 147.0440 0001716 141.4563 218.6756 14.34213487945013
IRIDIUM 24 [-]          
1 25105U 97082B   16008.59057203  .00000224  00000-0  65184-4 0  9991
2 25105  86.3940  97.4120 0009498 275.9914 206.2545 14.39718158947231
IRIDIUM 47 [+]          
1 25106U 97082C   16008.38458370  .00000247  00000-0  81287-4 0  9996
2 25106  86.3983 115.1665 0001921  94.9493 265.1922 14.34215241945001
IRIDIUM 49 [+]          
1 25108U 97082E   16008.41026388  .00000240  00000-0  78640-4 0  9994
2 25108  86.3984 115.2442 0001981  97.1233 330.5882 14.34218596945010
IRIDIUM 52 [+]          
1 25169U 98010A   16008.49620474  .00000006  00000-0 -49439-5 0  9993
2 25169  86.3961 210.0811 0001966  85.8395 274.3025 14.34218086936436
IRIDIUM 56 [+]          
1 25170U 98010B   16008.55962002 -.00000107  00000-0 -45110-4 0  9992
2 25170  86.3955 210.1576 0001685  89.0177 271.1211 14.34215816936421
IRIDIUM 54 [+]          
1 25171U 98010C   16008.52156576  .00000006  00000-0 -49174-5 0  9993
2 25171  86.3962 210.0886 0001977  85.3729 274.7692 14.34218477936584
IRIDIUM 50 [+]          
1 25172U 98010D   16008.49483559  .00000006  00000-0 -48355-5 0  9994
2 25172  86.3962 210.0589 0002008  82.3186 336.3116 14.34219150936412
IRIDIUM 53 [+]          
1 25173U 98010E   16008.51354659  .00000014  00000-0 -20768-5 0  9993
2 25173  86.3962 210.0571 0001978  85.2007 331.7552 14.34218667936429
IRIDIUM 51 [S]          
1 25262U 98018A   16008.51813034 -.00000085  00000-0 -37458-4 0  9999
2 25262  86.3967 178.7071 0001921  83.4177 276.7238 14.34215413935811
IRIDIUM 61 [+]          
1 25263U 98018B   16008.54983478  .00000008  00000-0 -40483-5 0  9990
2 25263  86.3976 178.5514 0001911  87.7169 272.4246 14.34217540931528
IRIDIUM 55 [+]          
1 25272U 98019A   16008.48302770  .00000176  00000-0  55866-4 0  9999
2 25272  86.3987 146.7981 0001974  94.2292 265.9129 14.34216015930717
IRIDIUM 57 [+]          
1 25273U 98019B   16008.45766238  .00000162  00000-0  50813-4 0  9992
2 25273  86.3990 147.0925 0001972  94.2525 265.8896 14.34215408930716
IRIDIUM 58 [+]          
1 25274U 98019C   16008.53376839  .00000173  00000-0  54894-4 0  9991
2 25274  86.3993 147.2429 0001897  93.5104 266.6308 14.34215499930720
IRIDIUM 59 [+]          
1 25275U 98019D   16008.47033596  .00000177  00000-0  56316-4 0  9990
2 25275  86.3988 147.1510 0002021  91.3655 268.7773 14.34216831930711
IRIDIUM 60 [+]          
1 25276U 98019E   16008.47669225  .00000171  00000-0  53955-4 0  9995
2 25276  86.3985 146.7886 0001986  95.1314 265.0109 14.34215500930718
IRIDIUM 62 [+]          
1 25285U 98021A   16008.50787458  .00000216  00000-0  70048-4 0  9993
2 25285  86.3968  83.6874 0002052  94.7834 265.3596 14.34215413929671
IRIDIUM 63 [-]          
1 25286U 98021B   16008.61172832  .00000159  00000-0  49248-4 0  9994
2 25286  86.3993  84.0165 0002236  88.9569  48.6680 14.34546495929697
IRIDIUM 64 [+]          
1 25287U 98021C   16008.52054690  .00000111  00000-0  32546-4 0  9997
2 25287  86.3967  83.7200 0002244 100.2041 259.9408 14.34215499929655
